     2.100          NAVIGATION                              RINEX VERSION / TYPE
fic2rin                                 10/26/2014 00:22:10 PGM / RUN BY / DATE
                                                            END OF HEADER
 5 14 10 25 14  0  0.0 -.325569882989D-03  .420641299570D-11  .000000000000D+00
     .101000000000D+03 -.178750000000D+02  .466483716634D-08 -.208192000800D+01
    -.948086380959D-06  .393333274405D-02  .111497938633D-04  .515370957565D+04
     .568800000000D+06 -.465661287308D-07  .299048458580D+01 -.260770320892D-07
     .947323733573D+00  .158562500000D+03  .369940312996D+00 -.798068957061D-08
    -.519664503255D-09  .100000000000D+01  .181500000000D+04  .000000000000D+00
     .240000000000D+01  .000000000000D+00 -.107102096081D-07  .101000000000D+03
     .561606000000D+06  .400000000000D+01
 6 14 10 25 14  0  0.0  .276463106275D-05  .363797880709D-11  .000000000000D+00
     .110000000000D+02 -.593750000000D+01  .502592363561D-08 -.209578058481D+01
    -.342726707458D-06  .594856217504D-03  .457093119621D-05  .515361502838D+04
     .568800000000D+06 -.242143869400D-07  .194573810947D+01  .000000000000D+00
     .960885025130D+00  .290781250000D+03  .215066485313D+01 -.828570227561D-08
    -.126076680171D-09  .100000000000D+01  .181500000000D+04  .000000000000D+00
     .240000000000D+01  .000000000000D+00  .465661287308D-08  .110000000000D+02
     .561606000000D+06  .400000000000D+01
 7 14 10 25 14  0  0.0  .405916012824D-03  .386535248253D-11  .000000000000D+00
     .730000000000D+02 -.164687500000D+02  .462054960729D-08  .610970309526D+00
    -.825151801109D-06  .799614400603D-02  .116042792797D-05  .515360547638D+04
     .568800000000D+06 -.931322574615D-08 -.116842156051D+01  .189989805222D-06
     .971956114125D+00  .362593750000D+03 -.276316467276D+01 -.852535511526D-08
    -.592881838766D-10  .100000000000D+01  .181500000000D+04  .000000000000D+00
     .240000000000D+01  .000000000000D+00 -.111758708954D-07  .730000000000D+02
     .561606000000D+06  .400000000000D+01
 8 14 10 25 14  0  0.0  .160448253155D-04  .113686837722D-12  .000000000000D+00
     .140000000000D+02 -.390000000000D+02  .411874299075D-08  .108088480852D+01
    -.201910734177D-05  .147207131376D-01  .186823308468D-05  .515217681885D+04
     .568800000000D+06 -.163912773132D-06 -.106560367536D+01  .188127160072D-06
     .995451421119D+00  .362968750000D+03 -.269611029678D+01 -.827677333226D-08
    -.296440919383D-09  .100000000000D+01  .181500000000D+04  .000000000000D+00
     .240000000000D+01  .000000000000D+00 -.465661287308D-08  .140000000000D+02
     .561606000000D+06  .400000000000D+01
 9 14 10 25 14  0  0.0  .539422035217D-05 -.579802872380D-11  .000000000000D+00
     .710000000000D+02  .127562500000D+03  .434696678290D-08  .173302708655D+01
     .665336847305D-05  .290096853860D-03  .860914587975D-05  .515372956467D+04
     .568800000000D+06 -.149011611938D-07 -.224372606948D+01 -.577419996262D-07
     .959399958471D+00  .213968750000D+03 -.280189385481D+01 -.805604985253D-08
     .266439669710D-09  .100000000000D+01  .181500000000D+04  .000000000000D+00
     .240000000000D+01  .000000000000D+00  .465661287308D-09  .710000000000D+02
     .561606000000D+06  .400000000000D+01
10 14 10 25 14  0  0.0 -.147063750774D-03 -.159161572810D-11  .000000000000D+00
     .320000000000D+02 -.120625000000D+02  .468483799945D-08 -.182447666457D+01
    -.653788447380D-06  .141744108405D-01  .109169632196D-04  .515363068581D+04
     .568800000000D+06  .178813934326D-06  .300685359458D+01 -.173225998878D-06
     .942126910202D+00  .156687500000D+03  .892490349931D+00 -.785675583685D-08
    -.499663670140D-09  .100000000000D+01  .181500000000D+04  .000000000000D+00
     .340000000000D+01  .000000000000D+00 -.325962901115D-08  .320000000000D+02
     .561606000000D+06  .400000000000D+01
11 14 10 25 14  0  0.0 -.531374942511D-03 -.284217094304D-11  .000000000000D+00
     .740000000000D+02  .226562500000D+02  .689635868959D-08  .716034141125D+00
     .126846134663D-05  .156259966316D-01  .465847551823D-05  .515370188522D+04
     .568800000000D+06 -.197440385818D-06  .161905130577D+01  .558793544769D-08
     .891073439163D+00  .255906250000D+03  .135191444478D+01 -.949968141415D-08
     .145363197818D-09  .100000000000D+01  .181500000000D+04  .000000000000D+00
     .240000000000D+01  .000000000000D+00 -.121071934700D-07  .740000000000D+02
     .561606000000D+06  .400000000000D+01
12 14 10 25 14  0  0.0  .241394620389D-03  .272848410532D-11  .000000000000D+00
     .570000000000D+02 -.997812500000D+02  .374372736984D-08  .220378754425D+00
    -.521168112755D-05  .506487500388D-02  .102296471596D-04  .515353123093D+04
     .568800000000D+06  .447034835815D-07 -.103314750651D+00  .800937414169D-07
     .988946456401D+00  .202937500000D+03  .501142861172D+00 -.770246369567D-08
    -.101075638777D-09  .100000000000D+01  .181500000000D+04  .000000000000D+00
     .240000000000D+01  .000000000000D+00 -.121071934700D-07  .570000000000D+02
     .561606000000D+06  .400000000000D+01
13 14 10 25 14  0  0.0 -.543445348740D-04 -.352429196937D-11  .000000000000D+00
     .480000000000D+02  .129531250000D+03  .395945064130D-08  .242315212926D+01
     .682473182678D-05  .587333890144D-02  .768154859543D-05  .515592131805D+04
     .568800000000D+06  .242143869400D-07 -.213207215912D+01  .372529029846D-07
     .976148505258D+00  .237062500000D+03  .222639747567D+01 -.783568353053D-08
     .301441127661D-09  .100000000000D+01  .181500000000D+04  .000000000000D+00
     .240000000000D+01  .000000000000D+00 -.111758708954D-07  .480000000000D+02
     .561606000000D+06  .400000000000D+01
14 14 10 25 14  0  0.0  .122057273984D-03 -.363797880709D-11  .000000000000D+00
     .590000000000D+02  .127781250000D+03  .411695720208D-08 -.303356324420D+01
     .668875873089D-05  .787723914254D-02  .677257776260D-05  .515374241447D+04
     .568800000000D+06  .391155481339D-07 -.216510202446D+01 -.186264514923D-07
     .968701583681D+00  .251656250000D+03 -.196830849529D+01 -.784425531615D-08
     .353228999120D-09  .100000000000D+01  .181500000000D+04  .000000000000D+00
     .240000000000D+01  .000000000000D+00 -.931322574615D-08  .590000000000D+02
     .561606000000D+06  .400000000000D+01
15 14 10 25 14  0  0.0 -.210687983781D-03 -.227373675443D-11  .000000000000D+00
     .490000000000D+02  .123187500000D+03  .487913180685D-08  .261479871179D+01
     .638328492641D-05  .673223356716D-02  .814348459244D-05  .515379786682D+04
     .568800000000D+06 -.109896063805D-06 -.228213915296D+01 -.465661287308D-07
     .935411889466D+00  .210031250000D+03  .293417439660D+00 -.826427281156D-08
     .256439253153D-09  .100000000000D+01  .181500000000D+04  .000000000000D+00
     .240000000000D+01  .000000000000D+00 -.102445483208D-07  .490000000000D+02
     .561606000000D+06  .400000000000D+01
16 14 10 25 14  0  0.0 -.185617245734D-03  .272848410532D-11  .000000000000D+00
     .250000000000D+02 -.109375000000D+03  .361836500514D-08 -.195286471782D+01
    -.594928860664D-05  .768743967637D-02  .113490968943D-04  .515369116211D+04
     .568800000000D+06  .353902578354D-07 -.847105434827D-01 -.113621354103D-06
     .989528152128D+00  .174125000000D+03  .234530683064D+00 -.759388774448D-08
    -.364300888880D-10  .100000000000D+01  .181500000000D+04  .000000000000D+00
     .240000000000D+01  .000000000000D+00 -.102445483208D-07  .250000000000D+02
     .561606000000D+06  .400000000000D+01
17 14 10 25 14  0  0.0 -.133106019348D-03 -.250111042988D-11  .000000000000D+00
     .410000000000D+02  .178125000000D+02  .435839583039D-08 -.285525801373D+01
     .959262251854D-06  .961387308780D-02  .983290374279D-05  .515366200066D+04
     .568800000000D+06  .188127160072D-06  .944449002995D+00 -.152736902237D-06
     .970064915075D+00  .192437500000D+03 -.209114738281D+01 -.770496379981D-08
     .625383192577D-09  .100000000000D+01  .181500000000D+04  .000000000000D+00
     .240000000000D+01  .000000000000D+00 -.107102096081D-07  .410000000000D+02
     .561606000000D+06  .400000000000D+01
18 14 10 25 14  0  0.0  .353754032403D-03  .261479726760D-11  .000000000000D+00
     .310000000000D+02 -.428125000000D+01  .513949979508D-08 -.136945669923D+01
    -.206753611565D-06  .154834082350D-01  .107120722532D-04  .515374204063D+04
     .568800000000D+06  .314787030220D-06  .298196692083D+01  .359490513802D-06
     .925874934865D+00  .154843750000D+03 -.200578150908D+01 -.822212819893D-08
    -.625026034843D-09  .100000000000D+01  .181500000000D+04  .000000000000D+00
     .240000000000D+01  .000000000000D+00 -.111758708954D-07  .310000000000D+02
     .561606000000D+06  .400000000000D+01
19 14 10 25 14  0  0.0 -.485105905682D-03 -.170530256582D-11  .000000000000D+00
     .790000000000D+02  .322187500000D+02  .451661670664D-08  .256544966466D+01
     .165216624737D-05  .106367189437D-01  .992044806480D-05  .515365897942D+04
     .568800000000D+06 -.152736902237D-06  .994767795112D+00 -.968575477600D-07
     .967113641697D+00  .190968750000D+03  .509555868979D+00 -.778103839720D-08
     .683599903251D-09  .100000000000D+01  .181500000000D+04  .000000000000D+00
     .240000000000D+01  .000000000000D+00 -.149011611938D-07  .790000000000D+02
     .561606000000D+06  .400000000000D+01
21 14 10 25 14  0  0.0 -.391274690628D-03 -.204636307899D-11  .000000000000D+00
     .760000000000D+02 -.828125000000D+01  .589774566478D-08 -.414607287886D+00
    -.260770320892D-06  .217006111052D-01  .434182584286D-05  .515366421318D+04
     .568800000000D+06 -.180676579475D-06  .193760785301D+01  .191852450371D-06
     .932528080018D+00  .282562500000D+03 -.198440388280D+01 -.918038239978D-08
    -.159649507186D-09  .100000000000D+01  .181500000000D+04  .000000000000D+00
     .240000000000D+01  .000000000000D+00 -.116415321827D-07  .760000000000D+02
     .561606000000D+06  .400000000000D+01
